[{"OBJECT_NAME":"STARLINK-4425","OBJECT_ID":"2022-084V","EPOCH":"2026-03-09T18:15:24.103296","MEAN_MOTION":15.01258882,"ECCENTRICITY":0.00031475,"INCLINATION":97.6029,"RA_OF_ASC_NODE":130.2739,"ARG_OF_PERICENTER":84.2116,"MEAN_ANOMALY":275.9467,"EPHEMERIS_TYPE":0,"CLASSIFICATION_TYPE":"U","NORAD_CAT_ID":53208,"ELEMENT_SET_NO":999,"REV_AT_EPOCH":19932,"BSTAR":-1.5268226e-5,"MEAN_MOTION_DOT":-2.54e-6,"MEAN_MOTION_DDOT":0},{"OBJECT_NAME":"OBJECT H","OBJECT_ID":"2022-023H","EPOCH":"2026-03-09T22:57:41.313888","MEAN_MOTION":15.21889274,"ECCENTRICITY":0.00933376,"INCLINATION":63.6345,"RA_OF_ASC_NODE":356.5929,"ARG_OF_PERICENTER":305.1945,"MEAN_ANOMALY":54.0457,"EPHEMERIS_TYPE":0,"CLASSIFICATION_TYPE":"U","NORAD_CAT_ID":51953,"ELEMENT_SET_NO":999,"REV_AT_EPOCH":22114,"BSTAR":0.00043867493,"MEAN_MOTION_DOT":0.00011084,"MEAN_MOTION_DDOT":0}]
